              M50 Cartesian                         J2K Cartesian  
    -----------------------------------       --------------------------------
     X    =       20786500.65                 X    =         6333790.36
     Y    =        3527877.28  feet           Y    =         1146136.37  meter
     Z    =       -7132309.76                 Z    =        -2143155.17
     XDOT =       3255.012750                 XDOT =         906.685282
     YDOT =      17201.618566  feet/sec       YDOT =        5253.670491  meter/sec
     ZDOT =      18060.091203                 ZDOT =        5509.327568
 
              TDR Cartesian                         TDR Cartesian  
    -----------------------------------       --------------------------------
     X    =       20763784.12                 X    =         6328801.40
     Y    =       -3908517.76  feet           Y    =        -1191316.21  meter
     Z    =       -6998794.73                 Z    =        -2133232.63
     XDOT =       8619.520688                 XDOT =        2627.229906
     YDOT =      13536.237717  feet/sec       YDOT =        4125.845256  meter/sec
     ZDOT =      18079.096042                 ZDOT =        5510.508473
  
  
    The mean element set is posted at the UTC for which position is
    just north of the next ascending node relative to the above
    vector time
 
 
    TWO LINE MEAN ELEMENT SET
  
    ISS
    1 25544U 98067A   16103.50422565  .00016717  00000-0  10270-3 0  9041
    2 25544  51.6431  25.6463 0002675  48.2529 311.8852 15.54458080 34766
  
  
    Satellite: ISS
    Catalog Number: 25544
    Epoch time:      16103.50422565   =   yrday.fracday
    Element set:     904
    Inclination:       51.6431  deg
    RA of node:        25.6463  deg
    Eccentricity:     .0002675     
    Arg of perigee:    48.2529  deg
    Mean anomaly:     311.8852  deg
    Mean motion:   15.54458080  rev/day
    Decay rate:    1.67170E-04  rev/day^2
    Epoch rev:            3476
    Checksum:              301
 
 
    Coasting Arc #6 (Orbit 3491)
    ---------------------------------------
 
    Vector Time (GMT): 2016/104/12:00:00.000
    Vector Time (MET): N/A
    Weight (LBS)     : 944180.3
 
              M50 Cartesian                         M50 Keplerian  
    -----------------------------------       --------------------------------
     X    =       -6455553.89                 A    =         6788297.09  meter
     Y    =       -2048823.77  meter          E    =           .0013508
     Z    =         374105.82                 I    =           51.79411
     XDOT =       1112.278082                 Wp   =          119.67842
     YDOT =      -4630.643118  meter/sec      RA   =           20.09983  deg
     ZDOT =      -6010.575260                 TA   =           56.29690
                                              MA   =           56.16820
                                              Ha   =            221.310  n.mi
                                              Hp   =            213.360
 
              M50 Cartesian                         J2K Cartesian  
    -----------------------------------       --------------------------------
     X    =      -21179638.75                 X    =        -6433980.90
     Y    =       -6721862.77  feet           Y    =        -2120893.43  meter
     Z    =        1227381.29                 Z    =          342798.72
     XDOT =       3649.206306                 XDOT =        1193.173334
     YDOT =     -15192.398682  feet/sec       YDOT =       -4617.752877  meter/sec
     ZDOT =     -19719.735104                 ZDOT =       -6004.975349
 
              TDR Cartesian                         TDR Cartesian  
    -----------------------------------       --------------------------------
     X    =      -22182609.21                 X    =        -6761259.29
     Y    =        1416668.55  feet           Y    =          431800.57  meter
     Z    =        1091741.96                 Z    =          332762.95
     XDOT =      -1886.094159                 XDOT =        -574.881500
     YDOT =     -13911.852282  feet/sec       YDOT =       -4240.332575  meter/sec
     ZDOT =     -19694.481889                 ZDOT =       -6002.878080
  
  
    The mean element set is posted at the UTC for which position is
    just north of the next ascending node relative to the above
    vector time
 
 
    TWO LINE MEAN ELEMENT SET
  
    ISS
    1 25544U 98067A   16104.53283183  .00016717  00000-0  10270-3 0  9057
    2 25544  51.6436  20.5164 0002675  53.2501 306.8897 15.54467460 34922
  
  
    Satellite: ISS
    Catalog Number: 25544
    Epoch time:      16104.53283183   =   yrday.fracday
    Element set:     905
    Inclination:       51.6436  deg
    RA of node:        20.5164  deg
    Eccentricity:     .0002675     
    Arg of perigee:    53.2501  deg
    Mean anomaly:     306.8897  deg
    Mean motion:   15.54467460  rev/day
    Decay rate:    1.67170E-04  rev/day^2
    Epoch rev:            3492
    Checksum:              303
 
 
    Coasting Arc #7 (Orbit 3491)
    ---------------------------------------
 
    Vector Time (GMT): 2016/104/12:24:44.014
    Vector Time (MET): N/A
    Weight (LBS)     : 943981.9
 
              M50 Cartesian                         M50 Keplerian  
    -----------------------------------       --------------------------------
     X    =        1661011.02                 A    =         6777309.17  meter
     Y    =       -3864203.17  meter          E    =           .0015599
     Z    =       -5327617.84                 I    =           51.75417
     XDOT =       7133.017018                 Wp   =           85.99111
     YDOT =       2776.143194  meter/sec      RA   =           20.01541  deg
     ZDOT =        211.905790                 TA   =          186.01889
                                              MA   =          186.03765
                                              Ha   =            221.296  n.mi
                                              Hp   =            214.391
 
              M50 Cartesian                         J2K Cartesian  
    -----------------------------------       --------------------------------
     X    =        5449511.21                 X    =         1729977.43
     Y    =      -12677831.91  feet           Y    =        -3845243.29  meter
     Z    =      -17479061.16                 Z    =        -5319381.32
     XDOT =      23402.286805                 XDOT =        7100.414000
     YDOT =       9108.081345  feet/sec       YDOT =        2855.727050  meter/sec
     ZDOT =        695.228969                 ZDOT =         246.477019
 
              TDR Cartesian                         TDR Cartesian  
    -----------------------------------       --------------------------------
     X    =        -910819.53                 X    =         -277617.79
     Y    =      -13815631.80  feet           Y    =        -4211004.57  meter
     Z    =      -17442502.66                 Z    =        -5316474.81
     XDOT =      23953.974640                 XDOT =        7301.171470
     YDOT =      -2639.286688  feet/sec       YDOT =        -804.454582  meter/sec
     ZDOT =        844.908284                 ZDOT =         257.528045
  
  
    The mean element set is posted at the UTC for which position is
    just north of the next ascending node relative to the above
    vector time
 
 
    TWO LINE MEAN ELEMENT SET
  
    ISS
    1 25544U 98067A   16104.53283226  .00016717  00000-0  10270-3 0  9066
    2 25544  51.6439  20.5161 0001659  26.2931 333.8305 15.54152367 34921
  
  
    Satellite: ISS
    Catalog Number: 25544
    Epoch time:      16104.53283226   =   yrday.fracday
    Element set:     906
    Inclination:       51.6439  deg
    RA of node:        20.5161  deg
    Eccentricity:     .0001659     
    Arg of perigee:    26.2931  deg
    Mean anomaly:     333.8305  deg
    Mean motion:   15.54152367  rev/day
    Decay rate:    1.67170E-04  rev/day^2
    Epoch rev:            3492
    Checksum:              291
 
 
    Coasting Arc #8 (Orbit 3507)
    ---------------------------------------
 
    Vector Time (GMT): 2016/105/12:24:44.014
    Vector Time (MET): N/A
    Weight (LBS)     : 943981.9
 
              M50 Cartesian                         M50 Keplerian  
    -----------------------------------       --------------------------------
     X    =       -3333687.87                 A    =         6778729.62  meter
     Y    =        3169616.07  meter          E    =           .0007696
     Z    =        4975574.38                 I    =           51.72852
     XDOT =      -6496.057339                 Wp   =           50.25478
     YDOT =      -3481.519055  meter/sec      RA   =           15.02427  deg
     ZDOT =      -2127.584204                 TA   =           60.47121
                                              MA   =           60.39449
                                              Ha   =            221.301  n.mi
                                              Hp   =            214.332
 
              M50 Cartesian                         J2K Cartesian  
    -----------------------------------       --------------------------------
     X    =      -10937296.17                 X    =        -3393052.79
     Y    =       10399002.84  feet           Y    =         3132004.92  meter
     Z    =       16324062.93                 Z    =         4959235.74
     XDOT =     -21312.524077                 XDOT =       -6446.308414
     YDOT =     -11422.306612  feet/sec       YDOT =       -3553.884255  meter/sec
     ZDOT =      -6980.263136                 ZDOT =       -2159.019444
 
